0 COSMOS 1124 DEB
1 12816U 79077F   13279.41502485 -.00000152  00000-0  00000+0 0  4161
2 12816 066.2008 091.4836 6161090 115.3191 319.1049 02.11699891256272
0 COSMOS 1124 DEB
1 12816U 79077F   13280.40685317 -.00000028  00000-0  00000+0 0  4171
2 12816 066.2500 091.2995 6158462 115.3967 354.9862 02.11698682256292
0 COSMOS 1124 DEB
1 12816U 79077F   13287.49715008 -.00000172  00000-0  00000+0 0  4189
2 12816 066.2794 090.7017 6156399 115.2223 358.6455 02.11702666256441
0 COSMOS 1124 DEB
1 12816U 79077F   13287.92757259 -.00000194  00000-0  00000+0 0  4196
2 12816 066.2937 090.6950 6157177 115.1836 326.6955 02.11704962256451
0 COSMOS 1124 DEB
1 12816U 79077F   13288.43051450 -.00000184  00000-0  00000+0 0  4204
2 12816 066.2684 090.6440 6156400 115.1802 349.9987 02.11699905256469
